GLOBALSTAR M078 [+]     
1 39076U 13005E   23249.14158888 -.00000110  00000+0 -32509-4 0  9993
2 39076  51.9868 134.7133 0000901 145.5708 214.5217 12.62271031487822
GLOBALSTAR M095 [+]     
1 39077U 13005F   23249.01014518 -.00000084  00000+0  10993-3 0  9992
2 39077  51.9793 132.6372 0000284 144.9876 215.1009 12.62268517487668
GLOBALSTAR M087 [+]     
1 52888U 22064A   23249.03882126 -.00000095  00000+0  63457-4 0  9998
2 52888  51.9752 122.6629 0009726   5.0655 355.0343 13.37551996 59360
